NORAD_CAT_ID,OBJECT_NAME,OBJECT_TYPE,EPOCH,MEAN_MOTION,ECCENTRICITY,INCLINATION,RA_OF_ASC_NODE,ARG_OF_PERICENTER,MEAN_ANOMALY,BSTAR,MEAN_MOTION_DOT,MEAN_MOTION_DDOT,TLE_LINE0,TLE_LINE1,TLE_LINE2,SEMIMAJOR_AXIS,PERIOD,APOGEE,PERIGEE,DECAYED
54179.0,STARLINK-5122,PAYLOAD,2024-05-23 01:48:43,15.08867882,0.0001838,53.2176,67.1804,103.0235,257.0962,0.00070214,0.00010913,0.0,0 STARLINK-5122,1 54179U 22141Y   24144.07550825  .00010913  00000-0  70214-3 0  9994,2 54179  53.2176  67.1804 0001838 103.0235 257.0962 15.08867882 87113,6917.795,95.436,540.932,538.389,0.0
54179.0,STARLINK-5122,PAYLOAD,2024-05-23 04:59:29,15.08870711,0.0001836,53.2173,66.5821,96.9204,263.1998,0.00074342,0.00011573,0.0,0 STARLINK-5122,1 54179U 22141Y   24144.20798602  .00011573  00000-0  74342-3 0  9995,2 54179  53.2173  66.5821 0001836  96.9204 263.1998 15.08870711 86904,6917.787,95.436,540.922,538.381,0.0
54179.0,STARLINK-5122,PAYLOAD,2024-05-24 04:50:17,15.0885114,0.0001991,53.2172,62.1137,98.4027,261.7191,0.00028766,4.294e-05,0.0,0 STARLINK-5122,1 54179U 22141Y   24145.20158892  .00004294  00000-0  28766-3 0  9998,2 54179  53.2172  62.1137 0001991  98.4027 261.7191 15.08851140 87283,6917.846,95.437,541.089,538.334,0.0
54179.0,STARLINK-5122,PAYLOAD,2024-05-24 22:19:31,15.08845392,0.0003155,53.2169,58.8421,140.6621,219.46,-0.00027472,-4.659e-05,0.0,0 STARLINK-5122,1 54179U 22141Y   24145.93022081 -.00004659  00000-0 -27472-3 0  9998,2 54179  53.2169  58.8421 0003155 140.6621 219.4600 15.08845392 87165,6917.864,95.437,541.911,537.546,0.0
54179.0,STARLINK-5122,PAYLOAD,2024-05-25 01:30:17,15.08840137,0.0001837,53.2174,58.2554,93.8779,266.2423,-0.00023405,-4.011e-05,0.0,0 STARLINK-5122,1 54179U 22141Y   24146.06270757 -.00004011  00000-0 -23405-3 0  9992,2 54179  53.2174  58.2554 0001837  93.8779 266.2423 15.08840137 87413,6917.88,95.438,541.016,538.474,0.0
54179.0,STARLINK-5122,PAYLOAD,2024-05-25 11:02:37,15.08827447,0.0001584,53.2172,56.4727,92.8911,267.2262,-0.00028908,-4.884e-05,0.0,0 STARLINK-5122,1 54179U 22141Y   24146.46015295 -.00004884  00000-0 -28908-3 0  9991,2 54179  53.2172  56.4727 0001584  92.8911 267.2262 15.08827447 87476,6917.919,95.438,540.88,538.688,0.0
54179.0,STARLINK-5122,PAYLOAD,2024-05-25 23:45:42,15.08839555,0.0001619,53.2172,54.0944,111.7604,248.3561,8.1301e-05,1.006e-05,0.0,0 STARLINK-5122,1 54179U 22141Y   24146.99007399  .00001006  00000-0  81301-4 0  9993,2 54179  53.2172  54.0944 0001619 111.7604 248.3561 15.08839555 87554,6917.882,95.438,540.867,538.627,0.0
54179.0,STARLINK-5122,PAYLOAD,2024-05-26 17:14:57,15.08835856,0.0001526,53.2171,50.8238,110.7744,249.3412,0.00024877,3.673e-05,0.0,0 STARLINK-5122,1 54179U 22141Y   24147.71872009  .00003673  00000-0  24877-3 0  9998,2 54179  53.2171  50.8238 0001526 110.7744 249.3412 15.08835856 87662,6917.893,95.438,540.814,538.702,0.0
54179.0,STARLINK-5122,PAYLOAD,2024-05-26 22:01:06,15.08845628,0.0001488,53.2172,49.9317,92.7372,267.3791,0.00027752,4.132e-05,0.0,0 STARLINK-5122,1 54179U 22141Y   24147.91743708  .00004132  00000-0  27752-3 0  9999,2 54179  53.2172  49.9317 0001488  92.7372 267.3791 15.08845628 87469,6917.863,95.437,540.758,538.699,0.0
54179.0,STARLINK-5122,PAYLOAD,2024-05-27 02:47:15,15.08852692,0.0001541,53.2178,49.0401,85.7057,274.4112,0.00039754,6.047e-05,0.0,0 STARLINK-5122,1 54179U 22141Y   24148.11615315  .00006047  00000-0  39754-3 0  9996,2 54179  53.2178  49.0401 0001541  85.7057 274.4112 15.08852692 87726,6917.842,95.437,540.773,538.641,0.0
54179.0,STARLINK-5122,PAYLOAD,2024-05-27 10:44:11,15.08848519,0.0001649,53.2184,47.5491,72.2782,287.839,7.5543e-05,9.15e-06,0.0,0 STARLINK-5122,1 54179U 22141Y   24148.44735366  .00000915  00000-0  75543-4 0  9996,2 54179  53.2184  47.5491 0001649  72.2782 287.8390 15.08848519 87774,6917.854,95.437,540.86,538.579,0.0
54179.0,STARLINK-5122,PAYLOAD,2024-05-27 21:51:53,15.08844184,0.0001572,53.2176,45.4695,87.835,272.2822,9.6988e-05,1.256e-05,0.0,0 STARLINK-5122,1 54179U 22141Y   24148.91103679  .00001256  00000-0  96988-4 0  9999,2 54179  53.2176  45.4695 0001572  87.8350 272.2822 15.08844184 87611,6917.868,95.437,540.82,538.645,0.0
54179.0,STARLINK-5122,PAYLOAD,2024-05-28 10:34:57,15.08849284,0.0001607,53.2191,43.0852,118.1211,241.9944,0.00018656,2.683e-05,0.0,0 STARLINK-5122,1 54179U 22141Y   24149.44094751  .00002683  00000-0  18656-3 0  9998,2 54179  53.2191  43.0852 0001607 118.1211 241.9944 15.08849284 87692,6917.852,95.437,540.829,538.605,0.0
54179.0,STARLINK-5122,PAYLOAD,2024-05-28 20:07:16,15.08846178,0.0001862,53.2177,41.3063,115.8003,244.3181,-4.5719e-05,-1.016e-05,0.0,0 STARLINK-5122,1 54179U 22141Y   24149.83839102 -.00001016  00000-0 -45719-4 0  9990,2 54179  53.2177  41.3063 0001862 115.8003 244.3181 15.08846178 87988,6917.862,95.437,541.015,538.438,0.0
54179.0,STARLINK-5122,PAYLOAD,2024-05-28 21:42:40,15.08847521,0.0001825,53.2185,41.0083,112.0759,248.0427,-3.8463e-06,-3.49e-06,0.0,0 STARLINK-5122,1 54179U 22141Y   24149.90463287 -.00000349  00000-0 -38463-5 0  9992,2 54179  53.2185  41.0083 0001825 112.0759 248.0427 15.08847521 87765,6917.857,95.437,540.985,538.46,0.0
54179.0,STARLINK-5122,PAYLOAD,2024-05-29 02:28:49,15.0884917,0.0002007,53.2207,40.1138,131.4909,228.6255,-4.6126e-05,-1.022e-05,0.0,0 STARLINK-5122,1 54179U 22141Y   24150.10335067 -.00001022  00000-0 -46126-4 0  9993,2 54179  53.2207  40.1138 0002007 131.4909 228.6255 15.08849170 87794,6917.852,95.437,541.106,538.329,0.0
54179.0,STARLINK-5122,PAYLOAD,2024-05-29 21:33:27,15.08847223,0.0001533,53.2188,36.5465,106.4961,253.62,-6.1719e-06,-3.86e-06,0.0,0 STARLINK-5122,1 54179U 22141Y   24150.89823210 -.00000386  00000-0 -61719-5 0  9999,2 54179  53.2188  36.5465 0001533 106.4961 253.6200 15.08847223 87916,6917.858,95.437,540.784,538.663,0.0
54179.0,STARLINK-5122,PAYLOAD,2024-05-30 02:19:36,15.0884913,0.0001606,53.219,35.6545,112.099,248.0173,-1.7281e-05,-5.63e-06,0.0,0 STARLINK-5122,1 54179U 22141Y   24151.09695005 -.00000563  00000-0 -17281-4 0  9992,2 54179  53.2190  35.6545 0001606 112.0990 248.0173 15.08849130 88179,6917.852,95.437,540.828,538.606,0.0
54179.0,STARLINK-5122,PAYLOAD,2024-05-30 21:24:14,15.08844398,0.0001498,53.2188,32.0861,100.6084,259.5077,0.00010473,1.379e-05,0.0,0 STARLINK-5122,1 54179U 22141Y   24151.89183080  .00001379  00000-0  10473-3 0  9994,2 54179  53.2188  32.0861 0001498 100.6084 259.5077 15.08844398 88063,6917.867,95.437,540.768,538.696,0.0
54179.0,STARLINK-5122,PAYLOAD,2024-05-31 19:39:38,15.08840557,0.0001444,53.2193,27.9291,95.6827,264.4329,2.4775e-05,1.06e-06,0.0,0 STARLINK-5122,1 54179U 22141Y   24152.81919585  .00000106  00000-0  24775-4 0  9992,2 54179  53.2193  27.9291 0001444  95.6827 264.4329 15.08840557 88437,6917.879,95.438,540.743,538.745,0.0
54179.0,STARLINK-5122,PAYLOAD,2024-05-31 22:50:24,15.08844967,0.00015,53.2194,27.3343,96.6287,263.4876,5.1094e-05,5.25e-06,0.0,0 STARLINK-5122,1 54179U 22141Y   24152.95167355  .00000525  00000-0  51094-4 0  9996,2 54179  53.2194  27.3343 0001500  96.6287 263.4876 15.08844967 88226,6917.865,95.437,540.768,538.693,0.0
54179.0,STARLINK-5122,PAYLOAD,2024-06-01 08:22:43,15.08844016,0.0001446,53.219,25.5501,96.7384,263.3773,1.1375e-05,-1.07e-06,0.0,0 STARLINK-5122,1 54179U 22141Y   24153.34911269 -.00000107  00000-0  11375-4 0  9996,2 54179  53.2190  25.5501 0001446  96.7384 263.3773 15.08844016 88282,6917.868,95.437,540.733,538.733,0.0
54179.0,STARLINK-5122,PAYLOAD,2024-06-01 21:05:49,15.08836958,0.0001848,53.2205,23.1691,104.4119,255.7078,-4.7512e-05,-1.044e-05,0.0,0 STARLINK-5122,1 54179U 22141Y   24153.87904204 -.00001044  00000-0 -47512-4 0  9999,2 54179  53.2205  23.1691 0001848 104.4119 255.7078 15.08836958 88595,6917.89,95.438,541.033,538.476,0.0
54179.0,STARLINK-5122,PAYLOAD,2024-06-02 08:13:30,15.08838771,0.0001452,53.2191,21.0868,78.9356,281.1799,5.4025e-05,5.72e-06,0.0,0 STARLINK-5122,1 54179U 22141Y   24154.34271917  .00000572  00000-0  54025-4 0  9990,2 54179  53.2191  21.0868 0001452  78.9356 281.1799 15.08838771 88432,6917.884,95.438,540.754,538.745,0.0
54179.0,STARLINK-5122,PAYLOAD,2024-06-03 00:07:22,15.08841298,0.0001474,53.2192,18.1145,85.5967,274.5194,5.3027e-05,5.56e-06,0.0,0 STARLINK-5122,1 54179U 22141Y   24155.00511975  .00000556  00000-0  53027-4 0  9998,2 54179  53.2192  18.1145 0001474  85.5967 274.5194 15.08841298 88763,6917.876,95.437,540.761,538.722,0.0
54179.0,STARLINK-5122,PAYLOAD,2024-06-03 08:04:17,15.08845398,0.0001585,53.2202,16.6279,87.8713,272.2461,1.2136e-05,-9.5e-07,0.0,0 STARLINK-5122,1 54179U 22141Y   24155.33631892 -.00000095  00000-0  12136-4 0  9990,2 54179  53.2202  16.6279 0001585  87.8713 272.2461 15.08845398 88580,6917.864,95.437,540.825,538.632,0.0
54179.0,STARLINK-5122,PAYLOAD,2024-06-03 20:47:22,15.08845015,0.0001357,53.2182,14.2494,84.2581,275.8566,0.00014824,2.072e-05,0.0,0 STARLINK-5122,1 54179U 22141Y   24155.86623718  .00002072  00000-0  14824-3 0  9997,2 54179  53.2182  14.2494 0001357  84.2581 275.8566 15.08845015 88661,6917.865,95.437,540.669,538.791,0.0
54179.0,STARLINK-5122,PAYLOAD,2024-06-03 23:58:08,15.08850655,0.0001174,53.2182,13.6536,76.3699,283.7423,0.00019628,2.838e-05,0.0,0 STARLINK-5122,1 54179U 22141Y   24155.99871227  .00002838  00000-0  19628-3 0  9998,2 54179  53.2182  13.6536 0001174  76.3699 283.7423 15.08850655 88914,6917.848,95.437,540.525,538.901,0.0
54179.0,STARLINK-5122,PAYLOAD,2024-06-04 07:55:05,15.08841696,0.0001594,53.2177,12.1679,78.8629,281.2542,9.2055e-05,1.177e-05,0.0,0 STARLINK-5122,1 54179U 22141Y   24156.32992155  .00001177  00000-0  92055-4 0  9991,2 54179  53.2177  12.1679 0001594  78.8629 281.2542 15.08841696 88961,6917.875,95.437,540.843,538.637,0.0
54179.0,STARLINK-5122,PAYLOAD,2024-06-04 20:38:10,15.08842548,0.000122,53.2182,9.7888,75.7748,284.3379,0.00011571,1.554e-05,0.0,0 STARLINK-5122,1 54179U 22141Y   24156.85983912  .00001554  00000-0  11571-3 0  9992,2 54179  53.2182   9.7888 0001220  75.7748 284.3379 15.08842548 88818,6917.873,95.437,540.582,538.894,0.0
